[{"OBJECT_NAME":"STARLINK-32477","OBJECT_ID":"2024-216G","EPOCH":"2026-01-23T09:59:57.333120","MEAN_MOTION":15.28112697,"ECCENTRICITY":0.00018661,"INCLINATION":42.9986,"RA_OF_ASC_NODE":148.3778,"ARG_OF_PERICENTER":283.8334,"MEAN_ANOMALY":76.231,"EPHEMERIS_TYPE":0,"CLASSIFICATION_TYPE":"U","NORAD_CAT_ID":62038,"ELEMENT_SET_NO":999,"REV_AT_EPOCH":6583,"BSTAR":0.0012392223,"MEAN_MOTION_DOT":0.0003456,"MEAN_MOTION_DDOT":0},{"OBJECT_NAME":"STARLINK-32480","OBJECT_ID":"2024-216H","EPOCH":"2026-01-23T18:30:43.248096","MEAN_MOTION":15.27661332,"ECCENTRICITY":0.00014657,"INCLINATION":42.9994,"RA_OF_ASC_NODE":150.1957,"ARG_OF_PERICENTER":274.4418,"MEAN_ANOMALY":85.6266,"EPHEMERIS_TYPE":0,"CLASSIFICATION_TYPE":"U","NORAD_CAT_ID":62039,"ELEMENT_SET_NO":999,"REV_AT_EPOCH":6584,"BSTAR":0.0013586017,"MEAN_MOTION_DOT":0.00037407,"MEAN_MOTION_DDOT":0},{"OBJECT_NAME":"STARLINK-32510","OBJECT_ID":"2024-216J","EPOCH":"2026-01-23T16:07:16.964832","MEAN_MOTION":15.2765466,"ECCENTRICITY":9.653e-5,"INCLINATION":42.9974,"RA_OF_ASC_NODE":158.0851,"ARG_OF_PERICENTER":278.6295,"MEAN_ANOMALY":81.4447,"EPHEMERIS_TYPE":0,"CLASSIFICATION_TYPE":"U","NORAD_CAT_ID":62040,"ELEMENT_SET_NO":999,"REV_AT_EPOCH":6690,"BSTAR":0.0014752405,"MEAN_MOTION_DOT":0.0004065,"MEAN_MOTION_DDOT":0},{"OBJECT_NAME":"STARLINK-32456","OBJECT_ID":"2024-216K","EPOCH":"2026-01-23T18:36:15.648768","MEAN_MOTION":15.27674484,"ECCENTRICITY":0.00015836,"INCLINATION":42.9984,"RA_OF_ASC_NODE":150.2263,"ARG_OF_PERICENTER":287.7094,"MEAN_ANOMALY":72.3584,"EPHEMERIS_TYPE":0,"CLASSIFICATION_TYPE":"U","NORAD_CAT_ID":62041,"ELEMENT_SET_NO":999,"REV_AT_EPOCH":6700,"BSTAR":0.0014508131,"MEAN_MOTION_DOT":0.00039994,"MEAN_MOTION_DDOT":0},{"OBJECT_NAME":"STARLINK-32509","OBJECT_ID":"2024-216L","EPOCH":"2026-01-23T16:38:04.555392","MEAN_MOTION":15.27636063,"ECCENTRICITY":0.00013312,"INCLINATION":42.9996,"RA_OF_ASC_NODE":150.4689,"ARG_OF_PERICENTER":262.6729,"MEAN_ANOMALY":97.3971,"EPHEMERIS_TYPE":0,"CLASSIFICATION_TYPE":"U","NORAD_CAT_ID":62042,"ELEMENT_SET_NO":999,"REV_AT_EPOCH":6699,"BSTAR":0.0010734926,"MEAN_MOTION_DOT":0.00029447,"MEAN_MOTION_DDOT":0},{"OBJECT_NAME":"STARLINK-32491","OBJECT_ID":"2024-216M","EPOCH":"2026-01-23T16:01:45.025536","MEAN_MOTION":15.27617906,"ECCENTRICITY":0.00016415,"INCLINATION":42.9984,"RA_OF_ASC_NODE":158.0585,"ARG_OF_PERICENTER":280.1549,"MEAN_ANOMALY":79.9117,"EPHEMERIS_TYPE":0,"CLASSIFICATION_TYPE":"U","NORAD_CAT_ID":62043,"ELEMENT_SET_NO":999,"REV_AT_EPOCH":6690,"BSTAR":0.0015166807,"MEAN_MOTION_DOT":0.00041759,"MEAN_MOTION_DDOT":0},{"OBJECT_NAME":"STARLINK-32577","OBJECT_ID":"2024-216N","EPOCH":"2026-01-23T10:36:42.930720","MEAN_MOTION":15.27639791,"ECCENTRICITY":0.00015324,"INCLINATION":43.0006,"RA_OF_ASC_NODE":158.9453,"ARG_OF_PERICENTER":275.2131,"MEAN_ANOMALY":84.8545,"EPHEMERIS_TYPE":0,"CLASSIFICATION_TYPE":"U","NORAD_CAT_ID":62044,"ELEMENT_SET_NO":999,"REV_AT_EPOCH":6688,"BSTAR":0.0015779499,"MEAN_MOTION_DOT":0.00043496,"MEAN_MOTION_DDOT":0},{"OBJECT_NAME":"STARLINK-32618","OBJECT_ID":"2024-216P","EPOCH":"2026-01-23T16:54:43.246944","MEAN_MOTION":15.27659065,"ECCENTRICITY":0.0001276,"INCLINATION":43.0003,"RA_OF_ASC_NODE":150.5527,"ARG_OF_PERICENTER":276.3091,"MEAN_ANOMALY":83.7615,"EPHEMERIS_TYPE":0,"CLASSIFICATION_TYPE":"U","NORAD_CAT_ID":62045,"ELEMENT_SET_NO":999,"REV_AT_EPOCH":6699,"BSTAR":0.0014117745,"MEAN_MOTION_DOT":0.00038886,"MEAN_MOTION_DDOT":0},{"OBJECT_NAME":"STARLINK-32598","OBJECT_ID":"2024-216Q","EPOCH":"2026-01-23T17:16:42.963744","MEAN_MOTION":15.27641706,"ECCENTRICITY":0.00011016,"INCLINATION":43.0016,"RA_OF_ASC_NODE":149.8121,"ARG_OF_PERICENTER":274.2457,"MEAN_ANOMALY":85.8268,"EPHEMERIS_TYPE":0,"CLASSIFICATION_TYPE":"U","NORAD_CAT_ID":62046,"ELEMENT_SET_NO":999,"REV_AT_EPOCH":6700,"BSTAR":0.0013121516,"MEAN_MOTION_DOT":0.0003609,"MEAN_MOTION_DDOT":0},{"OBJECT_NAME":"STARLINK-32630","OBJECT_ID":"2024-216R","EPOCH":"2026-01-23T09:19:12.815328","MEAN_MOTION":15.27645514,"ECCENTRICITY":7.578e-5,"INCLINATION":42.9974,"RA_OF_ASC_NODE":159.3993,"ARG_OF_PERICENTER":283.6377,"MEAN_ANOMALY":76.439,"EPHEMERIS_TYPE":0,"CLASSIFICATION_TYPE":"U","NORAD_CAT_ID":62047,"ELEMENT_SET_NO":999,"REV_AT_EPOCH":6686,"BSTAR":0.0016308585,"MEAN_MOTION_DOT":0.0004498,"MEAN_MOTION_DDOT":0},{"OBJECT_NAME":"STARLINK-32599","OBJECT_ID":"2024-216S","EPOCH":"2026-01-23T17:15:32.219424","MEAN_MOTION":15.27646284,"ECCENTRICITY":0.00014171,"INCLINATION":43,"RA_OF_ASC_NODE":157.5831,"ARG_OF_PERICENTER":279.5019,"MEAN_ANOMALY":80.5673,"EPHEMERIS_TYPE":0,"CLASSIFICATION_TYPE":"U","NORAD_CAT_ID":62048,"ELEMENT_SET_NO":999,"REV_AT_EPOCH":6691,"BSTAR":0.0012678423,"MEAN_MOTION_DOT":0.00034862,"MEAN_MOTION_DDOT":0},{"OBJECT_NAME":"STARLINK-32473","OBJECT_ID":"2024-216T","EPOCH":"2026-01-23T18:15:55.908864","MEAN_MOTION":15.27649079,"ECCENTRICITY":0.00010855,"INCLINATION":43.0009,"RA_OF_ASC_NODE":150.1181,"ARG_OF_PERICENTER":273.9712,"MEAN_ANOMALY":86.1016,"EPHEMERIS_TYPE":0,"CLASSIFICATION_TYPE":"U","NORAD_CAT_ID":62049,"ELEMENT_SET_NO":999,"REV_AT_EPOCH":6584,"BSTAR":0.0014141595,"MEAN_MOTION_DOT":0.0003894,"MEAN_MOTION_DDOT":0},{"OBJECT_NAME":"STARLINK-32492","OBJECT_ID":"2024-216U","EPOCH":"2026-01-23T18:12:40.671648","MEAN_MOTION":15.27632371,"ECCENTRICITY":0.00019257,"INCLINATION":43.002,"RA_OF_ASC_NODE":157.0219,"ARG_OF_PERICENTER":271.0849,"MEAN_ANOMALY":88.9783,"EPHEMERIS_TYPE":0,"CLASSIFICATION_TYPE":"U","NORAD_CAT_ID":62050,"ELEMENT_SET_NO":999,"REV_AT_EPOCH":6692,"BSTAR":0.0010101254,"MEAN_MOTION_DOT":0.00027684,"MEAN_MOTION_DDOT":0},{"OBJECT_NAME":"STARLINK-32496","OBJECT_ID":"2024-216V","EPOCH":"2026-01-23T19:04:29.410176","MEAN_MOTION":15.27624382,"ECCENTRICITY":0.00010751,"INCLINATION":43.0008,"RA_OF_ASC_NODE":157.2922,"ARG_OF_PERICENTER":269.0189,"MEAN_ANOMALY":91.0539,"EPHEMERIS_TYPE":0,"CLASSIFICATION_TYPE":"U","NORAD_CAT_ID":62051,"ELEMENT_SET_NO":999,"REV_AT_EPOCH":6692,"BSTAR":0.0011965684,"MEAN_MOTION_DOT":0.00032856,"MEAN_MOTION_DDOT":0},{"OBJECT_NAME":"STARLINK-32495","OBJECT_ID":"2024-216W","EPOCH":"2026-01-23T16:12:37.496736","MEAN_MOTION":15.27644049,"ECCENTRICITY":0.00018318,"INCLINATION":43.0005,"RA_OF_ASC_NODE":157.2568,"ARG_OF_PERICENTER":284.7844,"MEAN_ANOMALY":75.2804,"EPHEMERIS_TYPE":0,"CLASSIFICATION_TYPE":"U","NORAD_CAT_ID":62052,"ELEMENT_SET_NO":999,"REV_AT_EPOCH":6691,"BSTAR":0.0013602225,"MEAN_MOTION_DOT":0.00037432,"MEAN_MOTION_DDOT":0},{"OBJECT_NAME":"STARLINK-32494","OBJECT_ID":"2024-216X","EPOCH":"2026-01-23T18:23:46.838976","MEAN_MOTION":15.27612963,"ECCENTRICITY":0.00018543,"INCLINATION":43.0032,"RA_OF_ASC_NODE":157.0817,"ARG_OF_PERICENTER":278.5863,"MEAN_ANOMALY":81.4779,"EPHEMERIS_TYPE":0,"CLASSIFICATION_TYPE":"U","NORAD_CAT_ID":62053,"ELEMENT_SET_NO":999,"REV_AT_EPOCH":6692,"BSTAR":0.0021051662,"MEAN_MOTION_DOT":0.00058185,"MEAN_MOTION_DDOT":0}]
