STARLINK-32477          
1 62038U 24216G   26023.41663580  .00034560  00000+0  12392-2 0  9996
2 62038  42.9986 148.3778 0001866 283.8334  76.2310 15.28112697 65832
STARLINK-32480          
1 62039U 24216H   26023.77133389  .00037407  00000+0  13586-2 0  9994
2 62039  42.9994 150.1957 0001465 274.4418  85.6266 15.27661332 65845
STARLINK-32510          
1 62040U 24216J   26023.67172413  .00040650  00000+0  14752-2 0  9996
2 62040  42.9974 158.0851 0000965 278.6295  81.4447 15.27654660 66907
STARLINK-32456          
1 62041U 24216K   26023.77518112  .00039994  00000+0  14508-2 0  9996
2 62041  42.9984 150.2263 0001583 287.7094  72.3584 15.27674484 67004
STARLINK-32509          
1 62042U 24216L   26023.69310828  .00029447  00000+0  10735-2 0  9992
2 62042  42.9996 150.4689 0001331 262.6729  97.3971 15.27636063 66995
STARLINK-32491          
1 62043U 24216M   26023.66788224  .00041759  00000+0  15167-2 0  9993
2 62043  42.9984 158.0585 0001641 280.1549  79.9117 15.27617906 66905
STARLINK-32577          
1 62044U 24216N   26023.44216355  .00043496  00000+0  15779-2 0  9990
2 62044  43.0006 158.9453 0001532 275.2131  84.8545 15.27639791 66880
STARLINK-32618          
1 62045U 24216P   26023.70466721  .00038886  00000+0  14118-2 0  9997
2 62045  43.0003 150.5527 0001276 276.3091  83.7615 15.27659065 66994
STARLINK-32598          
1 62046U 24216Q   26023.71994171  .00036090  00000+0  13122-2 0  9993
2 62046  43.0016 149.8121 0001101 274.2457  85.8268 15.27641706 67003
STARLINK-32630          
1 62047U 24216R   26023.38834277  .00044980  00000+0  16309-2 0  9994
2 62047  42.9974 159.3993 0000757 283.6377  76.4390 15.27645514 66865
STARLINK-32599          
1 62048U 24216S   26023.71912291  .00034862  00000+0  12678-2 0  9998
2 62048  43.0000 157.5831 0001417 279.5019  80.5673 15.27646284 66911
STARLINK-32473          
1 62049U 24216T   26023.76106376  .00038940  00000+0  14142-2 0  9992
2 62049  43.0009 150.1181 0001085 273.9712  86.1016 15.27649079 65846
STARLINK-32492          
1 62050U 24216U   26023.75880407  .00027684  00000+0  10101-2 0  9991
2 62050  43.0020 157.0219 0001925 271.0849  88.9783 15.27632371 66920
STARLINK-32496          
1 62051U 24216V   26023.79478484  .00032856  00000+0  11966-2 0  9991
2 62051  43.0008 157.2922 0001075 269.0189  91.0539 15.27624382 66927
STARLINK-32495          
1 62052U 24216W   26023.67543399  .00037432  00000+0  13602-2 0  9991
2 62052  43.0005 157.2568 0001831 284.7844  75.2804 15.27644049 66913
STARLINK-32494          
1 62053U 24216X   26023.76651434  .00058185  00000+0  21052-2 0  9998
2 62053  43.0032 157.0817 0001854 278.5863  81.4779 15.27612963 66927
